CCSDS_OMM_VERS = 2.0
CREATION_DATE  = 
ORIGINATOR     = 

OBJECT_NAME    = RSP-03
OBJECT_ID      = 1998-067XL
CENTER_NAME    = EARTH
REF_FRAME      = TEME
TIME_SYSTEM    = UTC
MEAN_ELEMENT_THEORY = SGP/SGP4

EPOCH          = 2026-02-11T06:39:00.643392
MEAN_MOTION    = 16.08044301
ECCENTRICITY   = .0008894
INCLINATION    = 51.6134
RA_OF_ASC_NODE = 182.1263
ARG_OF_PERICENTER = 318.6316
MEAN_ANOMALY   = 41.4023

EPHEMERIS_TYPE = 0
CLASSIFICATION_TYPE = U
NORAD_CAT_ID   = 65732
ELEMENT_SET_NO = 999
REV_AT_EPOCH   = 2274
BSTAR          = .14937517E-2
MEAN_MOTION_DOT = .12651E-1
MEAN_MOTION_DDOT = .98900721E-3

CCSDS_OMM_VERS = 2.0
CREATION_DATE  = 
ORIGINATOR     = 

OBJECT_NAME    = YOTSUBA-KULOVER
OBJECT_ID      = 1998-067XN
CENTER_NAME    = EARTH
REF_FRAME      = TEME
TIME_SYSTEM    = UTC
MEAN_ELEMENT_THEORY = SGP/SGP4

EPOCH          = 2026-02-10T14:54:22.034304
MEAN_MOTION    = 15.71400666
ECCENTRICITY   = .00042018
INCLINATION    = 51.6247
RA_OF_ASC_NODE = 196.6445
ARG_OF_PERICENTER = 273.7808
MEAN_ANOMALY   = 86.2709

EPHEMERIS_TYPE = 0
CLASSIFICATION_TYPE = U
NORAD_CAT_ID   = 65941
ELEMENT_SET_NO = 999
REV_AT_EPOCH   = 1923
BSTAR          = .96994921E-3
MEAN_MOTION_DOT = .127709E-2
MEAN_MOTION_DDOT = 0

CCSDS_OMM_VERS = 2.0
CREATION_DATE  = 
ORIGINATOR     = 

OBJECT_NAME    = BOTAN
OBJECT_ID      = 1998-067XP
CENTER_NAME    = EARTH
REF_FRAME      = TEME
TIME_SYSTEM    = UTC
MEAN_ELEMENT_THEORY = SGP/SGP4

EPOCH          = 2026-02-11T05:38:54.960576
MEAN_MOTION    = 15.86318182
ECCENTRICITY   = .00069344
INCLINATION    = 51.6173
RA_OF_ASC_NODE = 189.4415
ARG_OF_PERICENTER = 302.8297
MEAN_ANOMALY   = 57.2039

EPHEMERIS_TYPE = 0
CLASSIFICATION_TYPE = U
NORAD_CAT_ID   = 65942
ELEMENT_SET_NO = 999
REV_AT_EPOCH   = 1938
BSTAR          = .15320983E-2
MEAN_MOTION_DOT = .410732E-2
MEAN_MOTION_DDOT = 0

CCSDS_OMM_VERS = 2.0
CREATION_DATE  = 
ORIGINATOR     = 

OBJECT_NAME    = E-KAGAKU-1
OBJECT_ID      = 1998-067XQ
CENTER_NAME    = EARTH
REF_FRAME      = TEME
TIME_SYSTEM    = UTC
MEAN_ELEMENT_THEORY = SGP/SGP4

EPOCH          = 2026-02-10T14:55:42.377664
MEAN_MOTION    = 15.71293302
ECCENTRICITY   = .00037589
INCLINATION    = 51.6276
RA_OF_ASC_NODE = 196.6625
ARG_OF_PERICENTER = 288.3820
MEAN_ANOMALY   = 71.6768

EPHEMERIS_TYPE = 0
CLASSIFICATION_TYPE = U
NORAD_CAT_ID   = 65943
ELEMENT_SET_NO = 999
REV_AT_EPOCH   = 1923
BSTAR          = .9650001E-3
MEAN_MOTION_DOT = .126449E-2
MEAN_MOTION_DDOT = 0

CCSDS_OMM_VERS = 2.0
CREATION_DATE  = 
ORIGINATOR     = 

OBJECT_NAME    = HRC MONOBLOCK CAMERA
OBJECT_ID      = 1998-067XR
CENTER_NAME    = EARTH
REF_FRAME      = TEME
TIME_SYSTEM    = UTC
MEAN_ELEMENT_THEORY = SGP/SGP4

EPOCH          = 2026-02-10T16:18:36.832608
MEAN_MOTION    = 15.59402032
ECCENTRICITY   = .00013934
INCLINATION    = 51.6276
RA_OF_ASC_NODE = 201.5485
ARG_OF_PERICENTER = 357.5048
MEAN_ANOMALY   = 2.5937

EPHEMERIS_TYPE = 0
CLASSIFICATION_TYPE = U
NORAD_CAT_ID   = 66052
ELEMENT_SET_NO = 999
REV_AT_EPOCH   = 1817
BSTAR          = .56726038E-3
MEAN_MOTION_DOT = .45451E-3
MEAN_MOTION_DDOT = 0

CCSDS_OMM_VERS = 2.0
CREATION_DATE  = 
ORIGINATOR     = 

OBJECT_NAME    = HTV-X1
OBJECT_ID      = 2025-241A
CENTER_NAME    = EARTH
REF_FRAME      = TEME
TIME_SYSTEM    = UTC
MEAN_ELEMENT_THEORY = SGP/SGP4

EPOCH          = 2026-02-11T04:21:12.145248
MEAN_MOTION    = 15.48540110
ECCENTRICITY   = .00110736
INCLINATION    = 51.6314
RA_OF_ASC_NODE = 203.3958
ARG_OF_PERICENTER = 86.6860
MEAN_ANOMALY   = 273.5395

EPHEMERIS_TYPE = 0
CLASSIFICATION_TYPE = U
NORAD_CAT_ID   = 66174
ELEMENT_SET_NO = 999
REV_AT_EPOCH   = 51
BSTAR          = .22024123E-3
MEAN_MOTION_DOT = .11529E-3
MEAN_MOTION_DDOT = 0

CCSDS_OMM_VERS = 2.0
CREATION_DATE  = 
ORIGINATOR     = 

OBJECT_NAME    = SZ-21 MODULE
OBJECT_ID      = 2025-246C
CENTER_NAME    = EARTH
REF_FRAME      = TEME
TIME_SYSTEM    = UTC
MEAN_ELEMENT_THEORY = SGP/SGP4

EPOCH          = 2026-02-11T06:00:48.705408
MEAN_MOTION    = 15.66534609
ECCENTRICITY   = .00025886
INCLINATION    = 41.4767
RA_OF_ASC_NODE = 5.8583
ARG_OF_PERICENTER = 291.1599
MEAN_ANOMALY   = 68.8966

EPHEMERIS_TYPE = 0
CLASSIFICATION_TYPE = U
NORAD_CAT_ID   = 66515
ELEMENT_SET_NO = 999
REV_AT_EPOCH   = 1392
BSTAR          = .36324923E-3
MEAN_MOTION_DOT = .38901E-3
MEAN_MOTION_DDOT = 0

CCSDS_OMM_VERS = 2.0
CREATION_DATE  = 
ORIGINATOR     = 

OBJECT_NAME    = SHENZHOU-22
OBJECT_ID      = 2025-272A
CENTER_NAME    = EARTH
REF_FRAME      = TEME
TIME_SYSTEM    = UTC
MEAN_ELEMENT_THEORY = SGP/SGP4

EPOCH          = 2026-02-11T06:38:36.879072
MEAN_MOTION    = 15.59483141
ECCENTRICITY   = .00043473
INCLINATION    = 41.4684
RA_OF_ASC_NODE = 8.7316
ARG_OF_PERICENTER = 58.3290
MEAN_ANOMALY   = 301.7972

EPHEMERIS_TYPE = 0
CLASSIFICATION_TYPE = U
NORAD_CAT_ID   = 66645
ELEMENT_SET_NO = 999
REV_AT_EPOCH   = 26764
BSTAR          = .3475522E-3
MEAN_MOTION_DOT = .28117E-3
MEAN_MOTION_DDOT = 0

CCSDS_OMM_VERS = 2.0
CREATION_DATE  = 
ORIGINATOR     = 

OBJECT_NAME    = SOYUZ-MS 28
OBJECT_ID      = 2025-275A
CENTER_NAME    = EARTH
REF_FRAME      = TEME
TIME_SYSTEM    = UTC
MEAN_ELEMENT_THEORY = SGP/SGP4

EPOCH          = 2026-02-11T04:21:12.145248
MEAN_MOTION    = 15.48540110
ECCENTRICITY   = .00110736
INCLINATION    = 51.6314
RA_OF_ASC_NODE = 203.3958
ARG_OF_PERICENTER = 86.6860
MEAN_ANOMALY   = 273.5395

EPHEMERIS_TYPE = 0
CLASSIFICATION_TYPE = U
NORAD_CAT_ID   = 66664
ELEMENT_SET_NO = 999
REV_AT_EPOCH   = 128
BSTAR          = .22024123E-3
MEAN_MOTION_DOT = .11529E-3
MEAN_MOTION_DDOT = 0

CCSDS_OMM_VERS = 2.0
CREATION_DATE  = 
ORIGINATOR     = 

OBJECT_NAME    = DUPLEX
OBJECT_ID      = 1998-067XS
CENTER_NAME    = EARTH
REF_FRAME      = TEME
TIME_SYSTEM    = UTC
MEAN_ELEMENT_THEORY = SGP/SGP4

EPOCH          = 2026-02-10T15:54:52.422336
MEAN_MOTION    = 15.54322290
ECCENTRICITY   = .00013176
INCLINATION    = 51.6288
RA_OF_ASC_NODE = 204.4385
ARG_OF_PERICENTER = 72.6028
MEAN_ANOMALY   = 287.5106

EPHEMERIS_TYPE = 0
CLASSIFICATION_TYPE = U
NORAD_CAT_ID   = 66906
ELEMENT_SET_NO = 999
REV_AT_EPOCH   = 1092
BSTAR          = .51085445E-3
MEAN_MOTION_DOT = .33721E-3
MEAN_MOTION_DDOT = 0

CCSDS_OMM_VERS = 2.0
CREATION_DATE  = 
ORIGINATOR     = 

OBJECT_NAME    = ISS OBJECT XT
OBJECT_ID      = 1998-067XT
CENTER_NAME    = EARTH
REF_FRAME      = TEME
TIME_SYSTEM    = UTC
MEAN_ELEMENT_THEORY = SGP/SGP4

EPOCH          = 2026-02-10T15:23:52.942272
MEAN_MOTION    = 15.62053811
ECCENTRICITY   = .00017725
INCLINATION    = 51.6270
RA_OF_ASC_NODE = 202.7925
ARG_OF_PERICENTER = 258.6617
MEAN_ANOMALY   = 101.4178

EPHEMERIS_TYPE = 0
CLASSIFICATION_TYPE = U
NORAD_CAT_ID   = 66907
ELEMENT_SET_NO = 999
REV_AT_EPOCH   = 1094
BSTAR          = .1205296E-2
MEAN_MOTION_DOT = .108458E-2
MEAN_MOTION_DDOT = 0

CCSDS_OMM_VERS = 2.0
CREATION_DATE  = 
ORIGINATOR     = 

OBJECT_NAME    = ISS OBJECT XU
OBJECT_ID      = 1998-067XU
CENTER_NAME    = EARTH
REF_FRAME      = TEME
TIME_SYSTEM    = UTC
MEAN_ELEMENT_THEORY = SGP/SGP4

EPOCH          = 2026-02-10T15:22:59.908224
MEAN_MOTION    = 15.62090146
ECCENTRICITY   = .00016161
INCLINATION    = 51.6271
RA_OF_ASC_NODE = 202.7865
ARG_OF_PERICENTER = 263.4646
MEAN_ANOMALY   = 96.6164

EPHEMERIS_TYPE = 0
CLASSIFICATION_TYPE = U
NORAD_CAT_ID   = 66908
ELEMENT_SET_NO = 999
REV_AT_EPOCH   = 1094
BSTAR          = .12234704E-2
MEAN_MOTION_DOT = .110282E-2
MEAN_MOTION_DDOT = 0

