RSP-03                  
1 65732U 98067XL  26042.27709078  .01265100  98901-3  14938-2 0  9999
2 65732  51.6134 182.1263 0008894 318.6316  41.4023 16.08044301 22741
YOTSUBA-KULOVER         
1 65941U 98067XN  26041.62108836  .00127709  00000+0  96995-3 0  9998
2 65941  51.6247 196.6445 0004201 273.7808  86.2709 15.71400666 19232
BOTAN                   
1 65942U 98067XP  26042.23535834  .00410732  00000+0  15321-2 0  9993
2 65942  51.6173 189.4415 0006934 302.8297  57.2039 15.86318182 19386
E-KAGAKU-1              
1 65943U 98067XQ  26041.62201826  .00126449  00000+0  96500-3 0  9995
2 65943  51.6276 196.6625 0003758 288.3820  71.6768 15.71293302 19238
HRC MONOBLOCK CAMERA    
1 66052U 98067XR  26041.67959297  .00045451  00000+0  56726-3 0  9993
2 66052  51.6276 201.5485 0001393 357.5048   2.5937 15.59402032 18175
HTV-X1                  
1 66174U 25241A   26042.18139057  .00011529  00000+0  22024-3 0  9996
2 66174  51.6314 203.3958 0011073  86.6860 273.5395 15.48540110   511
SZ-21 MODULE            
1 66515U 25246C   26042.25056372  .00038901  00000+0  36325-3 0  9998
2 66515  41.4767   5.8583 0002588 291.1599  68.8966 15.66534609 13925
SHENZHOU-22             
1 66645U 25272A   26042.27681573  .00028117  00000+0  34755-3 0  9993
2 66645  41.4684   8.7316 0004347  58.3290 301.7972 15.59483141267641
SOYUZ-MS 28             
1 66664U 25275A   26042.18139057  .00011529  00000+0  22024-3 0  9997
2 66664  51.6314 203.3958 0011073  86.6860 273.5395 15.48540110  1280
DUPLEX                  
1 66906U 98067XS  26041.66310674  .00033721  00000+0  51085-3 0  9990
2 66906  51.6288 204.4385 0001317  72.6028 287.5106 15.54322290 10926
ISS OBJECT XT           
1 66907U 98067XT  26041.64158498  .00108458  00000+0  12053-2 0  9994
2 66907  51.6270 202.7925 0001772 258.6617 101.4178 15.62053811 10948
ISS OBJECT XU           
1 66908U 98067XU  26041.64097116  .00110282  00000+0  12235-2 0  9994
2 66908  51.6271 202.7865 0001616 263.4646  96.6164 15.62090146 10948
